[{"OBJECT_NAME":"FLOCK 4G-14","OBJECT_ID":"2025-009BL","EPOCH":"2026-03-09T18:12:31.432032","MEAN_MOTION":15.27197201,"ECCENTRICITY":0.00030064,"INCLINATION":97.4064,"RA_OF_ASC_NODE":151.1836,"ARG_OF_PERICENTER":318.3639,"MEAN_ANOMALY":41.7371,"EPHEMERIS_TYPE":0,"CLASSIFICATION_TYPE":"U","NORAD_CAT_ID":62667,"ELEMENT_SET_NO":999,"REV_AT_EPOCH":6371,"BSTAR":0.00042675627,"MEAN_MOTION_DOT":0.0001131,"MEAN_MOTION_DDOT":0},{"OBJECT_NAME":"STARLINK-35467","OBJECT_ID":"2025-253AA","EPOCH":"2026-03-09T10:34:48.552672","MEAN_MOTION":15.27587843,"ECCENTRICITY":0.00033084,"INCLINATION":43.002,"RA_OF_ASC_NODE":214.1513,"ARG_OF_PERICENTER":304.535,"MEAN_ANOMALY":55.5189,"EPHEMERIS_TYPE":0,"CLASSIFICATION_TYPE":"U","NORAD_CAT_ID":66343,"ELEMENT_SET_NO":999,"REV_AT_EPOCH":2020,"BSTAR":0.0011817307,"MEAN_MOTION_DOT":0.0003241,"MEAN_MOTION_DDOT":0}]
